OBJECT_NAME,OBJECT_ID,EPOCH,MEAN_MOTION,ECCENTRICITY,INCLINATION,RA_OF_ASC_NODE,ARG_OF_PERICENTER,MEAN_ANOMALY,EPHEMERIS_TYPE,CLASSIFICATION_TYPE,NORAD_CAT_ID,ELEMENT_SET_NO,REV_AT_EPOCH,BSTAR,MEAN_MOTION_DOT,MEAN_MOTION_DDOT
STARLINK-35422,2025-235L,2026-07-16T16:18:50.231520,15.34405629,.00016454,53.1600,5.1836,118.1601,241.9568,0,U,66068,999,4265,.37837655E-3,.12431E-3,0
STARLINK-35279,2025-235M,2026-07-16T16:30:36.844416,15.30202698,.00009623,53.1599,5.9397,118.5051,241.6047,0,U,66069,999,4267,.46298386E-3,.13379E-3,0
STARLINK-35295,2025-235N,2026-07-16T15:55:49.718496,15.30201853,.00013623,53.1620,6.5043,72.6957,287.4193,0,U,66070,999,4266,.31924976E-3,.9108E-4,0
STARLINK-35323,2025-235P,2026-07-16T16:12:22.698144,15.30202468,.00009343,53.1603,5.8625,84.7905,275.3203,0,U,66071,999,4267,.44761628E-3,.12922E-3,0
STARLINK-35299,2025-235Q,2026-07-16T22:40:06.335328,15.34393562,.00012021,53.1597,4.0013,115.6829,244.4297,0,U,66072,999,4272,.49340595E-3,.16327E-3,0
STARLINK-35274,2025-235R,2026-07-16T15:57:20.934432,15.30197550,.00008731,53.1616,6.5112,84.8648,275.2453,0,U,66073,999,4266,.31290306E-3,.8919E-4,0
STARLINK-35321,2025-235S,2026-07-16T20:30:23.134752,15.30205172,.0001223,53.1618,5.5628,86.2099,273.9042,0,U,66074,999,4269,.31002474E-3,.8835E-4,0
STARLINK-35131,2025-235T,2026-07-16T17:55:40.059552,15.34395860,.00010921,53.1600,4.8970,87.5588,272.5540,0,U,66075,999,4269,.65245645E-3,.21729E-3,0
STARLINK-34801,2025-235U,2026-07-16T20:21:16.140672,15.30204590,.00013454,53.1616,5.5227,78.6104,281.5048,0,U,66076,999,4269,.29332877E-3,.8339E-4,0
STARLINK-35129,2025-235V,2026-07-16T18:16:52.665888,15.34393260,.00012328,53.1602,4.9869,81.3651,278.7491,0,U,66077,999,4269,.17056327E-3,.5389E-4,0
STARLINK-35116,2025-235W,2026-07-16T19:53:41.791488,15.34402940,.0001043,53.1601,4.6924,107.7495,252.3621,0,U,66078,999,4270,.46066336E-3,.15221E-3,0
STARLINK-35402,2025-235X,2026-07-16T21:08:12.524928,15.30207253,.00009169,53.1596,5.0091,96.2860,263.8245,0,U,66079,999,4270,.28313397E-3,.8038E-4,0
STARLINK-35325,2025-235Y,2026-07-16T16:00:39.286368,15.34384656,.0001175,53.1612,5.1092,78.6971,281.4163,0,U,66080,999,4268,.15932855E-3,.5008E-4,0
STARLINK-35403,2025-235Z,2026-07-16T20:26:50.166528,15.31694204,.00008948,53.1619,4.1217,57.6950,302.4138,0,U,66081,999,4271,-.34221678E-3,-.10967E-3,0
STARLINK-35011,2025-235AA,2026-07-16T20:47:03.312384,15.31720077,.00013108,53.1608,4.2089,86.6945,273.4207,0,U,66082,999,4271,.57139144E-3,.17418E-3,0
STARLINK-35291,2025-235AB,2026-07-16T20:42:32.437152,15.30208837,.00004751,53.1608,5.6113,92.6185,267.4870,0,U,66083,999,4266,.51313013E-3,.14873E-3,0
STARLINK-35379,2025-235AC,2026-07-16T20:24:18.383328,15.30201331,.00013286,53.1609,5.5289,89.9091,270.2062,0,U,66084,999,4269,.29094473E-3,.8268E-4,0
STARLINK-35370,2025-235AD,2026-07-16T18:59:22.270272,15.30199967,.0000999,53.1620,5.8741,82.4881,277.6234,0,U,66085,999,4265,.49594075E-3,.14358E-3,0
STARLINK-35596,2025-236A,2026-07-17T02:25:32.517984,15.30200447,.00010078,53.1566,223.0860,94.7954,265.3162,0,U,66086,999,4275,.15220802E-3,.4152E-4,0
STARLINK-35563,2025-236B,2026-07-17T02:06:41.166144,15.34395526,.00010444,53.1567,221.5873,91.8199,268.2923,0,U,66087,999,4271,.2957339E-3,.9627E-4,0
STARLINK-35461,2025-236C,2026-07-17T01:15:38.574720,15.30194272,.00014827,53.1572,222.7819,66.9182,293.1975,0,U,66088,999,4269,.3827173E-3,.10991E-3,0
STARLINK-35571,2025-236D,2026-07-17T01:29:19.051584,15.30211832,.00018949,53.1590,222.8463,59.2389,300.8798,0,U,66089,999,4275,.29386394E-3,.8357E-4,0
STARLINK-35570,2025-236E,2026-07-17T01:06:31.411296,15.30202973,.00018264,53.1578,222.7433,67.0141,293.1053,0,U,66090,999,4275,.1376164E-3,.3719E-4,0
STARLINK-35532,2025-236F,2026-07-16T12:24:58.762656,15.30198907,.0001323,53.1567,225.1283,73.9765,286.1381,0,U,66091,999,4267,.12553E-3,.336E-4,0
STARLINK-35527,2025-236G,2026-07-17T01:09:06.780960,15.34399485,.00012084,53.1577,221.3396,102.5798,257.5340,0,U,66092,999,4277,.18242645E-3,.5792E-4,0
STARLINK-35500,2025-236H,2026-07-17T01:33:52.441920,15.30210774,.00016552,53.1598,222.8641,66.8085,293.3090,0,U,66093,999,4275,.2598878E-3,.7348E-4,0
STARLINK-35528,2025-236J,2026-07-17T01:24:45.571392,15.30209721,.00020361,53.1592,222.8244,56.3755,303.7440,0,U,66094,999,4275,.32537302E-3,.9292E-4,0
STARLINK-35559,2025-236K,2026-07-17T01:20:12.032448,15.30200684,.00018231,53.1556,222.8012,53.9531,306.1638,0,U,66095,999,4275,.17075164E-3,.4701E-4,0
STARLINK-34386,2025-236L,2026-07-16T11:04:36.122016,15.30203237,.0001175,53.1574,225.4903,69.6875,290.4252,0,U,66096,999,4266,.20458E-3,.5705E-4,0
STARLINK-35613,2025-236M,2026-07-17T01:23:14.127360,15.30197910,.00011486,53.1577,222.8125,77.3861,282.7269,0,U,66097,999,4275,.18633104E-3,.5163E-4,0
