STARLINK-35422          
1 66068U 25235L   26197.67974805  .00012431  00000+0  37838-3 0  9996
2 66068  53.1600   5.1836 0001645 118.1601 241.9568 15.34405629 42651
STARLINK-35279          
1 66069U 25235M   26197.68792644  .00013379  00000+0  46298-3 0  9999
2 66069  53.1599   5.9397 0000962 118.5051 241.6047 15.30202698 42671
STARLINK-35295          
1 66070U 25235N   26197.66376989  .00009108  00000+0  31925-3 0  9995
2 66070  53.1620   6.5043 0001362  72.6957 287.4193 15.30201853 42664
STARLINK-35323          
1 66071U 25235P   26197.67526271  .00012922  00000+0  44762-3 0  9999
2 66071  53.1603   5.8625 0000934  84.7905 275.3203 15.30202468 42677
STARLINK-35299          
1 66072U 25235Q   26197.94451777  .00016327  00000+0  49341-3 0  9999
2 66072  53.1597   4.0013 0001202 115.6829 244.4297 15.34393562 42726
STARLINK-35274          
1 66073U 25235R   26197.66482563  .00008919  00000+0  31290-3 0  9998
2 66073  53.1616   6.5112 0000873  84.8648 275.2453 15.30197550 42669
STARLINK-35321          
1 66074U 25235S   26197.85443443  .00008835  00000+0  31002-3 0  9992
2 66074  53.1618   5.5628 0001223  86.2099 273.9042 15.30205172 42691
STARLINK-35131          
1 66075U 25235T   26197.74699143  .00021729  00000+0  65246-3 0  9995
2 66075  53.1600   4.8970 0001092  87.5588 272.5540 15.34395860 42692
STARLINK-34801          
1 66076U 25235U   26197.84810348  .00008339  00000+0  29333-3 0  9998
2 66076  53.1616   5.5227 0001345  78.6104 281.5048 15.30204590 42697
STARLINK-35129          
1 66077U 25235V   26197.76172067  .00005389  00000+0  17056-3 0  9990
2 66077  53.1602   4.9869 0001232  81.3651 278.7491 15.34393260 42698
STARLINK-35116          
1 66078U 25235W   26197.82895592  .00015221  00000+0  46066-3 0  9992
2 66078  53.1601   4.6924 0001043 107.7495 252.3621 15.34402940 42707
STARLINK-35402          
1 66079U 25235X   26197.88070052  .00008038  00000+0  28313-3 0  9998
2 66079  53.1596   5.0091 0000916  96.2860 263.8245 15.30207253 42702
STARLINK-35325          
1 66080U 25235Y   26197.66712137  .00005008  00000+0  15933-3 0  9991
2 66080  53.1612   5.1092 0001175  78.6971 281.4163 15.34384656 42689
STARLINK-35403          
1 66081U 25235Z   26197.85196952 -.00010967  00000+0 -34222-3 0  9998
2 66081  53.1619   4.1217 0000894  57.6950 302.4138 15.31694204 42716
STARLINK-35011          
1 66082U 25235AA  26197.86601056  .00017418  00000+0  57139-3 0  9994
2 66082  53.1608   4.2089 0001310  86.6945 273.4207 15.31720077 42715
STARLINK-35291          
1 66083U 25235AB  26197.86287543  .00014873  00000+0  51313-3 0  9996
2 66083  53.1608   5.6113 0000475  92.6185 267.4870 15.30208837 42660
STARLINK-35379          
1 66084U 25235AC  26197.85021277  .00008268  00000+0  29094-3 0  9998
2 66084  53.1609   5.5289 0001328  89.9091 270.2062 15.30201331 42698
STARLINK-35370          
1 66085U 25235AD  26197.79122998  .00014358  00000+0  49594-3 0  9998
2 66085  53.1620   5.8741 0000999  82.4881 277.6234 15.30199967 42655
STARLINK-35596          
1 66086U 25236A   26198.10107081  .00004152  00000+0  15221-3 0  9993
2 66086  53.1566 223.0860 0001007  94.7954 265.3162 15.30200447 42750
STARLINK-35563          
1 66087U 25236B   26198.08797646  .00009627  00000+0  29573-3 0  9990
2 66087  53.1567 221.5873 0001044  91.8199 268.2923 15.34395526 42719
STARLINK-35461          
1 66088U 25236C   26198.05252980  .00010991  00000+0  38272-3 0  9997
2 66088  53.1572 222.7819 0001482  66.9182 293.1975 15.30194272 42692
STARLINK-35571          
1 66089U 25236D   26198.06202606  .00008357  00000+0  29386-3 0  9998
2 66089  53.1590 222.8463 0001894  59.2389 300.8798 15.30211832 42758
STARLINK-35570          
1 66090U 25236E   26198.04619689  .00003719  00000+0  13762-3 0  9999
2 66090  53.1578 222.7433 0001826  67.0141 293.1053 15.30202973 42754
STARLINK-35532          
1 66091U 25236F   26197.51734679  .00003360  00000+0  12553-3 0  9997
2 66091  53.1567 225.1283 0001323  73.9765 286.1381 15.30198907 42671
STARLINK-35527          
1 66092U 25236G   26198.04799515  .00005792  00000+0  18243-3 0  9990
2 66092  53.1577 221.3396 0001208 102.5798 257.5340 15.34399485 42779
STARLINK-35500          
1 66093U 25236H   26198.06519030  .00007348  00000+0  25989-3 0  9999
2 66093  53.1598 222.8641 0001655  66.8085 293.3090 15.30210774 42756
STARLINK-35528          
1 66094U 25236J   26198.05886078  .00009292  00000+0  32537-3 0  9995
2 66094  53.1592 222.8244 0002036  56.3755 303.7440 15.30209721 42757
STARLINK-35559          
1 66095U 25236K   26198.05569482  .00004701  00000+0  17075-3 0  9993
2 66095  53.1556 222.8012 0001823  53.9531 306.1638 15.30200684 42754
STARLINK-34386          
1 66096U 25236L   26197.46152919  .00005705  00000+0  20458-3 0  9995
2 66096  53.1574 225.4903 0001175  69.6875 290.4252 15.30203237 42662
STARLINK-35613          
1 66097U 25236M   26198.05780240  .00005163  00000+0  18633-3 0  9996
2 66097  53.1577 222.8125 0001148  77.3861 282.7269 15.30197910 42756
